{"id":"699","name":"Saturn","centerId":"10","centerName":"Sun ","epoch":"2000-Jan-01 12:00:00.0000","ephemerisTable":{"eccentricity":0.05563834267345058,"periapsis":1353682190782.635,"inclination":2.484252387625145,"longitudeOfAscendingNode":113.6996600266686,"argumentOfPeriapsis":335.8655937185864,"timeOfPeriapsis":2452735.7706333147,"meanMotion":3.846563888180532e-7,"meanAnomaly":320.4255572592746,"trueAnomaly":316.1382469801452,"semiMajorAxis":1433436205589.77,"apoapsis":1513190220396.905,"siderealOrbitPeriod":935900222.8097245,"semiMinorAxis":1431215795265.599,"semiLatusRectum":1428998824384.3474,"linearEccentricity":79754014807.131},"physicalDataTable":{"meanRadius":58232000,"mass":5.6834e+26,"siderealRotRate":0.000163785,"gravParameter":37931206234,"obliquity":26.73,"siderealRotationPeriod":38362.39769929839}}
